OBJECT_NAME,OBJECT_ID,EPOCH,MEAN_MOTION,ECCENTRICITY,INCLINATION,RA_OF_ASC_NODE,ARG_OF_PERICENTER,MEAN_ANOMALY,EPHEMERIS_TYPE,CLASSIFICATION_TYPE,NORAD_CAT_ID,ELEMENT_SET_NO,REV_AT_EPOCH,BSTAR,MEAN_MOTION_DOT,MEAN_MOTION_DDOT
GLOBALSTAR M043,1999-041C,2024-07-07T07:26:08.448000,11.25680282,.0012153,51.9364,168.4580,81.0041,61.7695,0,U,25874,999,8403,-.38885E-3,-.81E-6,0
GLOBALSTAR M028,1999-041D,2024-07-07T06:39:27.297792,12.50558987,.0063785,51.9607,141.5061,42.3132,318.2626,0,U,25875,999,14702,.9041E-4,-.87E-6,0
GLOBALSTAR M024,1999-043A,2024-07-07T21:20:09.607776,11.10156826,.000091,52.0022,77.4732,283.1255,159.9157,0,U,25883,999,7665,.10722E-2,-.35E-6,0
GLOBALSTAR M027,1999-043B,2024-07-07T19:47:01.221216,11.04368787,.0020888,52.0186,145.8446,154.9778,205.2032,0,U,25884,999,10323,-.23554E-2,-.126E-5,0
GLOBALSTAR M054,1999-043C,2024-07-07T20:19:47.553888,11.39206711,.0004278,52.0162,330.8814,315.7419,201.3527,0,U,25885,999,8013,.27362E-2,.36E-6,0
GLOBALSTAR M053,1999-043D,2024-07-07T12:46:59.816064,11.27656673,.00039,51.9972,259.6099,213.5439,254.0173,0,U,25886,999,8056,.12259E-2,-.26E-6,0
GLOBALSTAR M050,1999-049B,2024-07-08T04:47:59.460000,12.07435732,.0009748,52.0011,341.0728,69.7216,102.0337,0,U,25908,999,11136,-.21225E-3,-.107E-5,0
GLOBALSTAR M055,1999-049D,2024-07-08T04:33:55.211040,12.29404181,.0007538,52.0013,264.1839,137.9609,222.1822,0,U,25910,999,12619,.49344E-3,-.37E-6,0
GLOBALSTAR M057,1999-058A,2024-07-07T15:34:47.023104,12.24788985,.0001901,51.9969,245.9733,30.5012,329.5947,0,U,25943,999,12478,.4444E-3,-.44E-6,0
GLOBALSTAR M059,1999-058B,2024-07-07T20:00:05.222592,11.99964419,.0001053,52.0029,58.7480,33.7719,73.2553,0,U,25944,999,12145,.89351E-3,-.14E-6,0
GLOBALSTAR M056,1999-058C,2024-07-08T03:10:41.911392,12.04775081,.000036,51.9976,68.7328,140.5601,341.5819,0,U,25945,999,12120,-.4695E-3,-.128E-5,0
GLOBALSTAR M031,1999-058D,2024-07-07T22:38:39.675264,12.16010648,.0001618,51.9979,342.1828,168.2371,342.3842,0,U,25946,999,12290,.17438E-3,-.73E-6,0
GLOBALSTAR M034,1999-062B,2024-07-08T05:09:09.439776,11.79428750,.0013651,51.9836,185.5040,112.0944,331.5439,0,U,25962,999,9778,-.12667E-3,-.89E-6,0
GLOBALSTAR M029,1999-062C,2024-07-07T20:02:23.551584,11.99879853,.0003166,51.9819,307.0776,153.5739,21.9419,0,U,25963,999,12783,.31366E-3,-.61E-6,0
GLOBALSTAR M063,2000-008A,2024-07-07T14:20:38.800320,11.86157068,.000427,51.9965,299.0886,20.9216,80.1513,0,U,26081,999,11668,.73571E-3,-.32E-6,0
GLOBALSTAR M062,2000-008B,2024-07-07T22:37:44.627232,12.43441394,.0007867,51.9862,28.0805,95.5503,51.7562,0,U,26082,999,11629,.10769E-2,.52E-6,0
GLOBALSTAR M060,2000-008C,2024-07-07T13:09:10.098720,12.17635732,.0003994,52.0035,300.4936,144.4348,299.9940,0,U,26083,999,11038,.37497E-3,-.53E-6,0
GLOBALSTAR M064,2000-008D,2024-07-07T20:06:58.833216,11.88520126,.0002153,52.0045,41.3416,98.4689,261.6388,0,U,26084,999,12626,.12514E-3,-.74E-6,0
GLOBALSTAR M069,2007-020C,2024-07-07T09:29:36.404736,12.62276560,.0000657,51.9933,151.4719,335.7479,192.7253,0,U,31573,999,79100,-.44591E-4,-.112E-5,0
GLOBALSTAR M070,2007-048B,2024-07-07T20:36:22.089600,12.62295325,.0000959,51.9751,97.4488,56.6346,22.7549,0,U,32264,999,77116,.15979E-3,-.75E-6,0
